[{"OBJECT_NAME":"CELESTIS-17 & SHERPA-FX1","OBJECT_ID":"2021-006CB","EPOCH":"2026-03-09T15:26:05.078112","MEAN_MOTION":15.30994801,"ECCENTRICITY":0.000663,"INCLINATION":97.2397,"RA_OF_ASC_NODE":112.1052,"ARG_OF_PERICENTER":178.1385,"MEAN_ANOMALY":181.9882,"EPHEMERIS_TYPE":0,"CLASSIFICATION_TYPE":"U","NORAD_CAT_ID":47486,"ELEMENT_SET_NO":999,"REV_AT_EPOCH":28406,"BSTAR":0.00024301,"MEAN_MOTION_DOT":7.207e-5,"MEAN_MOTION_DDOT":0},{"OBJECT_NAME":"STARLINK-31652","OBJECT_ID":"2024-050C","EPOCH":"2026-03-09T13:59:37.490784","MEAN_MOTION":15.30210485,"ECCENTRICITY":0.0001429,"INCLINATION":53.1594,"RA_OF_ASC_NODE":181.3932,"ARG_OF_PERICENTER":101.9598,"MEAN_ANOMALY":258.1563,"EPHEMERIS_TYPE":0,"CLASSIFICATION_TYPE":"U","NORAD_CAT_ID":59256,"ELEMENT_SET_NO":999,"REV_AT_EPOCH":11053,"BSTAR":-1.7742e-5,"MEAN_MOTION_DOT":-8.85e-6,"MEAN_MOTION_DDOT":0}]
