CELESTIS-17 & SHERPA-FX1
1 47486U 21006CB  26068.64311433  .00007207  00000+0  24301-3 0  9993
2 47486  97.2397 112.1052 0006630 178.1385 181.9882 15.30994801284065
STARLINK-31652          
1 59256U 24050C   26068.58307281 -.00000885  00000+0 -17742-4 0  9991
2 59256  53.1594 181.3932 0001429 101.9598 258.1563 15.30210485110531
